CCSDS_OMM_VERS = 2.0
CREATION_DATE  = 
ORIGINATOR     = 

OBJECT_NAME    = SOYUZ-MS 28
OBJECT_ID      = 2025-275A
CENTER_NAME    = EARTH
REF_FRAME      = TEME
TIME_SYSTEM    = UTC
MEAN_ELEMENT_THEORY = SGP/SGP4

EPOCH          = 2025-12-09T10:41:18.358368
MEAN_MOTION    = 15.49444513
ECCENTRICITY   = .0003352
INCLINATION    = 51.6308
RA_OF_ASC_NODE = 158.7912
ARG_OF_PERICENTER = 224.7147
MEAN_ANOMALY   = 135.3571

EPHEMERIS_TYPE = 0
CLASSIFICATION_TYPE = U
NORAD_CAT_ID   = 66664
ELEMENT_SET_NO = 999
REV_AT_EPOCH   = 193
BSTAR          = .25353E-3
MEAN_MOTION_DOT = .13761E-3
MEAN_MOTION_DDOT = 0

CCSDS_OMM_VERS = 2.0
CREATION_DATE  = 
ORIGINATOR     = 

OBJECT_NAME    = 1998-067XS
OBJECT_ID      = 1998-067XS
CENTER_NAME    = EARTH
REF_FRAME      = TEME
TIME_SYSTEM    = UTC
MEAN_ELEMENT_THEORY = SGP/SGP4

EPOCH          = 2025-12-09T12:09:24.113376
MEAN_MOTION    = 15.50312686
ECCENTRICITY   = .0003981
INCLINATION    = 51.6300
RA_OF_ASC_NODE = 158.4502
ARG_OF_PERICENTER = 188.2752
MEAN_ANOMALY   = 171.8172

EPHEMERIS_TYPE = 0
CLASSIFICATION_TYPE = U
NORAD_CAT_ID   = 66906
ELEMENT_SET_NO = 999
REV_AT_EPOCH   = 111
BSTAR          = .59212E-3
MEAN_MOTION_DOT = .33864E-3
MEAN_MOTION_DDOT = 0

CCSDS_OMM_VERS = 2.0
CREATION_DATE  = 
ORIGINATOR     = 

OBJECT_NAME    = 1998-067XT
OBJECT_ID      = 1998-067XT
CENTER_NAME    = EARTH
REF_FRAME      = TEME
TIME_SYSTEM    = UTC
MEAN_ELEMENT_THEORY = SGP/SGP4

EPOCH          = 2025-12-09T12:07:37.113888
MEAN_MOTION    = 15.50864429
ECCENTRICITY   = .0004804
INCLINATION    = 51.6307
RA_OF_ASC_NODE = 158.4423
ARG_OF_PERICENTER = 208.5081
MEAN_ANOMALY   = 151.5646

EPHEMERIS_TYPE = 0
CLASSIFICATION_TYPE = U
NORAD_CAT_ID   = 66907
ELEMENT_SET_NO = 999
REV_AT_EPOCH   = 111
BSTAR          = .12921E-2
MEAN_MOTION_DOT = .76342E-3
MEAN_MOTION_DDOT = 0

CCSDS_OMM_VERS = 2.0
CREATION_DATE  = 
ORIGINATOR     = 

OBJECT_NAME    = 1998-067XU
OBJECT_ID      = 1998-067XU
CENTER_NAME    = EARTH
REF_FRAME      = TEME
TIME_SYSTEM    = UTC
MEAN_ELEMENT_THEORY = SGP/SGP4

EPOCH          = 2025-12-09T12:07:19.625664
MEAN_MOTION    = 15.50906956
ECCENTRICITY   = .0005005
INCLINATION    = 51.6299
RA_OF_ASC_NODE = 158.4410
ARG_OF_PERICENTER = 206.9098
MEAN_ANOMALY   = 153.1632

EPHEMERIS_TYPE = 0
CLASSIFICATION_TYPE = U
NORAD_CAT_ID   = 66908
ELEMENT_SET_NO = 999
REV_AT_EPOCH   = 111
BSTAR          = .12986E-2
MEAN_MOTION_DOT = .7685E-3
MEAN_MOTION_DDOT = 0

CCSDS_OMM_VERS = 2.0
CREATION_DATE  = 
ORIGINATOR     = 

OBJECT_NAME    = SILVERSAT
OBJECT_ID      = 1998-067XV
CENTER_NAME    = EARTH
REF_FRAME      = TEME
TIME_SYSTEM    = UTC
MEAN_ELEMENT_THEORY = SGP/SGP4

EPOCH          = 2025-12-09T12:07:05.660832
MEAN_MOTION    = 15.51001422
ECCENTRICITY   = .0004874
INCLINATION    = 51.6302
RA_OF_ASC_NODE = 158.4394
ARG_OF_PERICENTER = 208.8709
MEAN_ANOMALY   = 151.2011

EPHEMERIS_TYPE = 0
CLASSIFICATION_TYPE = U
NORAD_CAT_ID   = 66909
ELEMENT_SET_NO = 999
REV_AT_EPOCH   = 111
BSTAR          = .14217E-2
MEAN_MOTION_DOT = .84543E-3
MEAN_MOTION_DDOT = 0

CCSDS_OMM_VERS = 2.0
CREATION_DATE  = 
ORIGINATOR     = 

OBJECT_NAME    = 1998-067XW
OBJECT_ID      = 1998-067XW
CENTER_NAME    = EARTH
REF_FRAME      = TEME
TIME_SYSTEM    = UTC
MEAN_ELEMENT_THEORY = SGP/SGP4

EPOCH          = 2025-12-08T22:10:28.284672
MEAN_MOTION    = 15.51111527
ECCENTRICITY   = .0005924
INCLINATION    = 51.6296
RA_OF_ASC_NODE = 161.3100
ARG_OF_PERICENTER = 189.6176
MEAN_ANOMALY   = 170.4701

EPHEMERIS_TYPE = 0
CLASSIFICATION_TYPE = U
NORAD_CAT_ID   = 66910
ELEMENT_SET_NO = 999
REV_AT_EPOCH   = 102
BSTAR          = .11827E-2
MEAN_MOTION_DOT = .70418E-3
MEAN_MOTION_DDOT = 0

CCSDS_OMM_VERS = 2.0
CREATION_DATE  = 
ORIGINATOR     = 

OBJECT_NAME    = 1998-067XX
OBJECT_ID      = 1998-067XX
CENTER_NAME    = EARTH
REF_FRAME      = TEME
TIME_SYSTEM    = UTC
MEAN_ELEMENT_THEORY = SGP/SGP4

EPOCH          = 2025-12-09T02:48:25.039872
MEAN_MOTION    = 15.51276485
ECCENTRICITY   = .0005703
INCLINATION    = 51.6296
RA_OF_ASC_NODE = 160.3494
ARG_OF_PERICENTER = 191.2268
MEAN_ANOMALY   = 168.8595

EPHEMERIS_TYPE = 0
CLASSIFICATION_TYPE = U
NORAD_CAT_ID   = 66911
ELEMENT_SET_NO = 999
REV_AT_EPOCH   = 104
BSTAR          = .14246E-2
MEAN_MOTION_DOT = .85582E-3
MEAN_MOTION_DDOT = 0

CCSDS_OMM_VERS = 2.0
CREATION_DATE  = 
ORIGINATOR     = 

OBJECT_NAME    = 1998-067XY
OBJECT_ID      = 1998-067XY
CENTER_NAME    = EARTH
REF_FRAME      = TEME
TIME_SYSTEM    = UTC
MEAN_ELEMENT_THEORY = SGP/SGP4

EPOCH          = 2025-12-08T19:07:24.168000
MEAN_MOTION    = 15.50590071
ECCENTRICITY   = .0005044
INCLINATION    = 51.6301
RA_OF_ASC_NODE = 161.9610
ARG_OF_PERICENTER = 202.8278
MEAN_ANOMALY   = 157.2488

EPHEMERIS_TYPE = 0
CLASSIFICATION_TYPE = U
NORAD_CAT_ID   = 66912
ELEMENT_SET_NO = 999
REV_AT_EPOCH   = 99
BSTAR          = .96272E-3
MEAN_MOTION_DOT = .56065E-3
MEAN_MOTION_DDOT = 0

